{"fetched_at":"2026-07-21T17:53:03.255Z","source":"https://celestrak.org/NORAD/elements/gp.php?GROUP=kuiper&FORMAT=JSON","constellation":"kuiper","records":[{"OBJECT_NAME":"KUIPER-00080","OBJECT_ID":"2025-151M","EPOCH":"2026-07-21T00:43:31.387296","CLASSIFICATION_TYPE":"U","MEAN_MOTION":14.79983058,"ECCENTRICITY":0.00004832,"INCLINATION":51.9006,"RA_OF_ASC_NODE":70.9314,"ARG_OF_PERICENTER":111.8678,"MEAN_ANOMALY":248.2336,"EPHEMERIS_TYPE":0,"NORAD_CAT_ID":64827,"ELEMENT_SET_NO":999,"REV_AT_EPOCH":5505,"BSTAR":0.0010184226,"MEAN_MOTION_DOT":0.00007561,"MEAN_MOTION_DDOT":0},{"OBJECT_NAME":"KUIPER-00082","OBJECT_ID":"2025-151N","EPOCH":"2026-07-21T00:14:17.605536","CLASSIFICATION_TYPE":"U","MEAN_MOTION":14.7993915,"ECCENTRICITY":0.00008708,"INCLINATION":51.9023,"RA_OF_ASC_NODE":58.5758,"ARG_OF_PERICENTER":109.6418,"MEAN_ANOMALY":250.4638,"EPHEMERIS_TYPE":0,"NORAD_CAT_ID":64828,"ELEMENT_SET_NO":999,"REV_AT_EPOCH":5522,"BSTAR":0.00030293922,"MEAN_MOTION_DOT":0.00002089,"MEAN_MOTION_DDOT":0},{"OBJECT_NAME":"KUIPER-00083","OBJECT_ID":"2025-151P","EPOCH":"2026-07-21T00:02:38.052384","CLASSIFICATION_TYPE":"U","MEAN_MOTION":14.79932461,"ECCENTRICITY":0.00006265,"INCLINATION":51.9015,"RA_OF_ASC_NODE":66.0957,"ARG_OF_PERICENTER":101.4372,"MEAN_ANOMALY":258.6661,"EPHEMERIS_TYPE":0,"NORAD_CAT_ID":64829,"ELEMENT_SET_NO":999,"REV_AT_EPOCH":5630,"BSTAR":0.00012030118,"MEAN_MOTION_DOT":0.00000696,"MEAN_MOTION_DDOT":0},{"OBJECT_NAME":"KUIPER-00084","OBJECT_ID":"2025-151Q","EPOCH":"2026-07-21T01:24:19.642752","CLASSIFICATION_TYPE":"U","MEAN_MOTION":14.79927217,"ECCENTRICITY":0.00008796,"INCLINATION":51.9028,"RA_OF_ASC_NODE":75.8302,"ARG_OF_PERICENTER":111.6656,"MEAN_ANOMALY":248.44,"EPHEMERIS_TYPE":0,"NORAD_CAT_ID":64830,"ELEMENT_SET_NO":999,"REV_AT_EPOCH":5498,"BSTAR":0.00016115057,"MEAN_MOTION_DOT":0.00001007,"MEAN_MOTION_DDOT":0},{"OBJECT_NAME":"KUIPER-00085","OBJECT_ID":"2025-151R","EPOCH":"2026-07-21T01:02:56.013504","CLASSIFICATION_TYPE":"U","MEAN_MOTION":14.79937198,"ECCENTRICITY":0.00007679,"INCLINATION":51.904,"RA_OF_ASC_NODE":58.4742,"ARG_OF_PERICENTER":113.033,"MEAN_ANOMALY":247.0713,"EPHEMERIS_TYPE":0,"NORAD_CAT_ID":64831,"ELEMENT_SET_NO":999,"REV_AT_EPOCH":5522,"BSTAR":0.00030139866,"MEAN_MOTION_DOT":0.00002077,"MEAN_MOTION_DDOT":0},{"OBJECT_NAME":"KUIPER-00086","OBJECT_ID":"2025-151S","EPOCH":"2026-07-20T21:32:53.837376","CLASSIFICATION_TYPE":"U","MEAN_MOTION":14.79941862,"ECCENTRICITY":0.00008501,"INCLINATION":51.9019,"RA_OF_ASC_NODE":69.0646,"ARG_OF_PERICENTER":113.6284,"MEAN_ANOMALY":246.4768,"EPHEMERIS_TYPE":0,"NORAD_CAT_ID":64832,"ELEMENT_SET_NO":999,"REV_AT_EPOCH":5506,"BSTAR":0.00029143969,"MEAN_MOTION_DOT":0.00002002,"MEAN_MOTION_DDOT":0},{"OBJECT_NAME":"KUIPER-00087","OBJECT_ID":"2025-151T","EPOCH":"2026-07-20T23:37:17.536800","CLASSIFICATION_TYPE":"U","MEAN_MOTION":14.79948493,"ECCENTRICITY":0.00006337,"INCLINATION":51.8999,"RA_OF_ASC_NODE":51.1437,"ARG_OF_PERICENTER":112.1167,"MEAN_ANOMALY":247.9862,"EPHEMERIS_TYPE":0,"NORAD_CAT_ID":64833,"ELEMENT_SET_NO":999,"REV_AT_EPOCH":5531,"BSTAR":7.43493e-7,"MEAN_MOTION_DOT":-0.00000215,"MEAN_MOTION_DDOT":0},{"OBJECT_NAME":"KUIPER-00089","OBJECT_ID":"2025-151U","EPOCH":"2026-07-20T23:29:33.471168","CLASSIFICATION_TYPE":"U","MEAN_MOTION":14.79937113,"ECCENTRICITY":0.000071,"INCLINATION":51.9014,"RA_OF_ASC_NODE":56.1891,"ARG_OF_PERICENTER":108.8766,"MEAN_ANOMALY":251.2274,"EPHEMERIS_TYPE":0,"NORAD_CAT_ID":64834,"ELEMENT_SET_NO":999,"REV_AT_EPOCH":5525,"BSTAR":0.00030793304,"MEAN_MOTION_DOT":0.00002127,"MEAN_MOTION_DDOT":0},{"OBJECT_NAME":"KUIPER-00090","OBJECT_ID":"2025-151V","EPOCH":"2026-07-21T06:10:09.024096","CLASSIFICATION_TYPE":"U","MEAN_MOTION":14.79948987,"ECCENTRICITY":0.00007639,"INCLINATION":51.9003,"RA_OF_ASC_NODE":47.4638,"ARG_OF_PERICENTER":125.9608,"MEAN_ANOMALY":234.1425,"EPHEMERIS_TYPE":0,"NORAD_CAT_ID":64835,"ELEMENT_SET_NO":999,"REV_AT_EPOCH":5539,"BSTAR":0.00033662494,"MEAN_MOTION_DOT":0.00002347,"MEAN_MOTION_DDOT":0},{"OBJECT_NAME":"KUIPER-00091","OBJECT_ID":"2025-151W","EPOCH":"2026-07-20T23:33:26.308800","CLASSIFICATION_TYPE":"U","MEAN_MOTION":14.79937984,"ECCENTRICITY":0.00008025,"INCLINATION":51.9022,"RA_OF_ASC_NODE":53.6955,"ARG_OF_PERICENTER":111.8813,"MEAN_ANOMALY":248.2235,"EPHEMERIS_TYPE":0,"NORAD_CAT_ID":64836,"ELEMENT_SET_NO":999,"REV_AT_EPOCH":5528,"BSTAR":0.00029074977,"MEAN_MOTION_DOT":0.00001996,"MEAN_MOTION_DDOT":0},{"OBJECT_NAME":"KUIPER-00092","OBJECT_ID":"2025-151X","EPOCH":"2026-07-21T00:59:01.037472","CLASSIFICATION_TYPE":"U","MEAN_MOTION":14.79942749,"ECCENTRICITY":0.00007189,"INCLINATION":51.9013,"RA_OF_ASC_NODE":60.9233,"ARG_OF_PERICENTER":111.2548,"MEAN_ANOMALY":248.8491,"EPHEMERIS_TYPE":0,"NORAD_CAT_ID":64837,"ELEMENT_SET_NO":999,"REV_AT_EPOCH":5640,"BSTAR":0.00029749192,"MEAN_MOTION_DOT":0.00002048,"MEAN_MOTION_DDOT":0},{"OBJECT_NAME":"KUIPER-00093","OBJECT_ID":"2025-151Y","EPOCH":"2026-07-20T21:40:37.643808","CLASSIFICATION_TYPE":"U","MEAN_MOTION":14.79950886,"ECCENTRICITY":0.00006458,"INCLINATION":51.9013,"RA_OF_ASC_NODE":64.0058,"ARG_OF_PERICENTER":123.0444,"MEAN_ANOMALY":237.0581,"EPHEMERIS_TYPE":0,"NORAD_CAT_ID":64838,"ELEMENT_SET_NO":999,"REV_AT_EPOCH":5513,"BSTAR":-0.00023674615,"MEAN_MOTION_DOT":-0.00002026,"MEAN_MOTION_DDOT":0},{"OBJECT_NAME":"KUIPER-00094","OBJECT_ID":"2025-151Z","EPOCH":"2026-07-21T05:19:39.714816","CLASSIFICATION_TYPE":"U","MEAN_MOTION":14.79944298,"ECCENTRICITY":0.00010416,"INCLINATION":51.9048,"RA_OF_ASC_NODE":17.6903,"ARG_OF_PERICENTER":124.6275,"MEAN_ANOMALY":235.4786,"EPHEMERIS_TYPE":0,"NORAD_CAT_ID":64839,"ELEMENT_SET_NO":999,"REV_AT_EPOCH":5581,"BSTAR":0.00033423274,"MEAN_MOTION_DOT":0.00002328,"MEAN_MOTION_DDOT":0},{"OBJECT_NAME":"KUIPER-00081","OBJECT_ID":"2025-171A","EPOCH":"2026-07-21T05:28:57.259200","CLASSIFICATION_TYPE":"U","MEAN_MOTION":14.79947775,"ECCENTRICITY":0.00002835,"INCLINATION":51.9003,"RA_OF_ASC_NODE":277.5658,"ARG_OF_PERICENTER":104.8955,"MEAN_ANOMALY":255.2039,"EPHEMERIS_TYPE":0,"NORAD_CAT_ID":65132,"ELEMENT_SET_NO":999,"REV_AT_EPOCH":5281,"BSTAR":0.00027671754,"MEAN_MOTION_DOT":0.0000189,"MEAN_MOTION_DDOT":0},{"OBJECT_NAME":"KUIPER-00088","OBJECT_ID":"2025-171B","EPOCH":"2026-07-20T12:49:22.153152","CLASSIFICATION_TYPE":"U","MEAN_MOTION":14.79939778,"ECCENTRICITY":0.0000459,"INCLINATION":51.9003,"RA_OF_ASC_NODE":298.1371,"ARG_OF_PERICENTER":123.9922,"MEAN_ANOMALY":236.1084,"EPHEMERIS_TYPE":0,"NORAD_CAT_ID":65133,"ELEMENT_SET_NO":999,"REV_AT_EPOCH":5246,"BSTAR":0.00025411935,"MEAN_MOTION_DOT":0.00001717,"MEAN_MOTION_DDOT":0},{"OBJECT_NAME":"KUIPER-00095","OBJECT_ID":"2025-171C","EPOCH":"2026-07-21T05:32:50.433792","CLASSIFICATION_TYPE":"U","MEAN_MOTION":14.79947694,"ECCENTRICITY":0.00002179,"INCLINATION":51.8987,"RA_OF_ASC_NODE":275.1025,"ARG_OF_PERICENTER":90.8253,"MEAN_ANOMALY":269.2734,"EPHEMERIS_TYPE":0,"NORAD_CAT_ID":65134,"ELEMENT_SET_NO":999,"REV_AT_EPOCH":5284,"BSTAR":0.00028087385,"MEAN_MOTION_DOT":0.00001922,"MEAN_MOTION_DDOT":0}]}
