KUIPER-00080            
1 64827U 25151M   26202.03022439  .00007561  00000+0  10184-2 0  9990
2 64827  51.9006  70.9314 0000483 111.8678 248.2336 14.79983058 55058
KUIPER-00082            
1 64828U 25151N   26202.00992599  .00002089  00000+0  30294-3 0  9996
2 64828  51.9023  58.5758 0000870 109.6418 250.4638 14.79939150 55222
KUIPER-00083            
1 64829U 25151P   26202.00182931  .00000696  00000+0  12030-3 0  9998
2 64829  51.9015  66.0957 0000626 101.4372 258.6661 14.79932461 56301
KUIPER-00084            
1 64830U 25151Q   26202.05856068  .00001007  00000+0  16115-3 0  9999
2 64830  51.9028  75.8302 0000879 111.6656 248.4400 14.79927217 54980
KUIPER-00085            
1 64831U 25151R   26202.04370386  .00002077  00000+0  30140-3 0  9995
2 64831  51.9040  58.4742 0000767 113.0330 247.0713 14.79937198 55220
KUIPER-00086            
1 64832U 25151S   26201.89784534  .00002002  00000+0  29144-3 0  9992
2 64832  51.9019  69.0646 0000850 113.6284 246.4768 14.79941862 55063
KUIPER-00087            
1 64833U 25151T   26201.98423075 -.00000215  00000+0  74349-6 0  9998
2 64833  51.8999  51.1437 0000633 112.1167 247.9862 14.79948493 55319
KUIPER-00089            
1 64834U 25151U   26201.97885962  .00002127  00000+0  30793-3 0  9990
2 64834  51.9014  56.1891 0000710 108.8766 251.2274 14.79937113 55256
KUIPER-00090            
1 64835U 25151V   26202.25704889  .00002347  00000+0  33662-3 0  9993
2 64835  51.9003  47.4638 0000763 125.9608 234.1425 14.79948987 55394
KUIPER-00091            
1 64836U 25151W   26201.98155450  .00001996  00000+0  29075-3 0  9999
2 64836  51.9022  53.6955 0000802 111.8813 248.2235 14.79937984 55281
KUIPER-00092            
1 64837U 25151X   26202.04098423  .00002048  00000+0  29749-3 0  9991
2 64837  51.9013  60.9233 0000718 111.2548 248.8491 14.79942749 56407
KUIPER-00093            
1 64838U 25151Y   26201.90321347 -.00002026  00000+0 -23675-3 0  9990
2 64838  51.9013  64.0058 0000645 123.0444 237.0581 14.79950886 55133
KUIPER-00094            
1 64839U 25151Z   26202.22198744  .00002328  00000+0  33423-3 0  9995
2 64839  51.9048  17.6903 0001041 124.6275 235.4786 14.79944298 55819
KUIPER-00081            
1 65132U 25171A   26202.22844050  .00001890  00000+0  27672-3 0  9994
2 65132  51.9003 277.5658 0000283 104.8955 255.2039 14.79947775 52814
KUIPER-00088            
1 65133U 25171B   26201.53428418  .00001717  00000+0  25412-3 0  9992
2 65133  51.9003 298.1371 0000459 123.9922 236.1084 14.79939778 52460
KUIPER-00095            
1 65134U 25171C   26202.23113928  .00001922  00000+0  28087-3 0  9997
2 65134  51.8987 275.1025 0000217  90.8253 269.2734 14.79947694 52840
